{"type": "FeatureCollection", "features": [ {"type": "Feature", "properties": {"norad_id": 17070, "name": "POLAR BEAR", "group": "nnss", "lat": -62.68796161234957, "lon": -176.99077634779638, "alt_km": 1018.2308646100237, "timestamp": "2025-12-13T07:35:41.777951+00:00", "meta": {"OBJECT_NAME": "POLAR BEAR", "OBJECT_ID": "1986-088A", "EPOCH": "2025-12-12T23:43:39.182016", "MEAN_MOTION": 13.7525081, "ECCENTRICITY": 0.00409893, "INCLINATION": 89.6174, "RA_OF_ASC_NODE": 183.7638, "ARG_OF_PERICENTER": 118.5072, "MEAN_ANOMALY": 356.9037, "EPHEMERIS_TYPE": 0, "CLASSIFICATION_TYPE": "U", "NORAD_CAT_ID": 17070, "ELEMENT_SET_NO": 999, "REV_AT_EPOCH": 95982, "BSTAR": 0.0001464102, "MEAN_MOTION_DOT": 1.53e-06, "MEAN_MOTION_DDOT": 0}, "tle": {"line1": "1 17070U 86088A   25346.98864794  .00000153  00000+0  14641-3 0  9997", "line2": "2 17070  89.6174 183.7638 0040989 118.5072 356.9037 13.75250810959820"}}, "geometry": {"type": "Point", "coordinates": [-176.99077634779638, -62.68796161234957]}}, {"type": "Feature", "properties": {"norad_id": 18361, "name": "OSCAR 27", "group": "nnss", "lat": 49.209789123815575, "lon": -100.27194677738242, "alt_km": 1087.7825178759276, "timestamp": "2025-12-13T07:35:41.777960+00:00", "meta": {"OBJECT_NAME": "OSCAR 27", "OBJECT_ID": "1987-080A", "EPOCH": "2025-12-12T18:26:17.791008", "MEAN_MOTION": 13.44906712, "ECCENTRICITY": 0.01029132, "INCLINATION": 90.3743, "RA_OF_ASC_NODE": 79.2735, "ARG_OF_PERICENTER": 223.7218, "MEAN_ANOMALY": 135.5746, "EPHEMERIS_TYPE": 0, "CLASSIFICATION_TYPE": "U", "NORAD_CAT_ID": 18361, "ELEMENT_SET_NO": 999, "REV_AT_EPOCH": 87557, "BSTAR": 0.0002302791, "MEAN_MOTION_DOT": 1.47e-06, "MEAN_MOTION_DDOT": 0}, "tle": {"line1": "1 18361U 87080A   25346.76826147  .00000147  00000+0  23028-3 0  9992", "line2": "2 18361  90.3743  79.2735 0102913 223.7218 135.5746 13.44906712875571"}}, "geometry": {"type": "Point", "coordinates": [-100.27194677738242, 49.209789123815575]}}, {"type": "Feature", "properties": {"norad_id": 18362, "name": "OSCAR 29", "group": "nnss", "lat": 37.93126249772416, "lon": -99.95453847951325, "alt_km": 1107.390762020138, "timestamp": "2025-12-13T07:35:41.777970+00:00", "meta": {"OBJECT_NAME": "OSCAR 29", "OBJECT_ID": "1987-080B", "EPOCH": "2025-12-12T18:59:04.661952", "MEAN_MOTION": 13.44448394, "ECCENTRICITY": 0.0103927, "INCLINATION": 90.3753, "RA_OF_ASC_NODE": 79.7331, "ARG_OF_PERICENTER": 247.0152, "MEAN_ANOMALY": 234.5451, "EPHEMERIS_TYPE": 0, "CLASSIFICATION_TYPE": "U", "NORAD_CAT_ID": 18362, "ELEMENT_SET_NO": 999, "REV_AT_EPOCH": 87510, "BSTAR": 0.00019830157, "MEAN_MOTION_DOT": 1.27e-06, "MEAN_MOTION_DDOT": 0}, "tle": {"line1": "1 18362U 87080B   25346.79102618  .00000127  00000+0  19830-3 0  9990", "line2": "2 18362  90.3753  79.7331 0103927 247.0152 234.5451 13.44448394875101"}}, "geometry": {"type": "Point", "coordinates": [-99.95453847951325, 37.93126249772416]}}, {"type": "Feature", "properties": {"norad_id": 19070, "name": "OSCAR 23", "group": "nnss", "lat": -66.00875535836339, "lon": -164.31182361580818, "alt_km": 1105.8177625660837, "timestamp": "2025-12-13T07:35:41.777980+00:00", "meta": {"OBJECT_NAME": "OSCAR 23", "OBJECT_ID": "1988-033A", "EPOCH": "2025-12-12T23:22:48.239616", "MEAN_MOTION": 13.27787167, "ECCENTRICITY": 0.01895499, "INCLINATION": 90.3213, "RA_OF_ASC_NODE": 16.3999, "ARG_OF_PERICENTER": 179.27, "MEAN_ANOMALY": 229.5044, "EPHEMERIS_TYPE": 0, "CLASSIFICATION_TYPE": "U", "NORAD_CAT_ID": 19070, "ELEMENT_SET_NO": 999, "REV_AT_EPOCH": 82256, "BSTAR": 0.00017226082, "MEAN_MOTION_DOT": 9.4e-07, "MEAN_MOTION_DDOT": 0}, "tle": {"line1": "1 19070U 88033A   25346.97416944  .00000094  00000+0  17226-3 0  9996", "line2": "2 19070  90.3213  16.3999 0189549 179.2700 229.5044 13.27787167822564"}}, "geometry": {"type": "Point", "coordinates": [-164.31182361580818, -66.00875535836339]}}, {"type": "Feature", "properties": {"norad_id": 19071, "name": "OSCAR 32", "group": "nnss", "lat": -5.836988897251013, "lon": 16.57550349072994, "alt_km": 1298.2252172610824, "timestamp": "2025-12-13T07:35:41.777989+00:00", "meta": {"OBJECT_NAME": "OSCAR 32", "OBJECT_ID": "1988-033B", "EPOCH": "2025-12-13T00:27:35.034336", "MEAN_MOTION": 13.27954043, "ECCENTRICITY": 0.0188385, "INCLINATION": 90.3218, "RA_OF_ASC_NODE": 16.5333, "ARG_OF_PERICENTER": 166.0148, "MEAN_ANOMALY": 208.1507, "EPHEMERIS_TYPE": 0, "CLASSIFICATION_TYPE": "U", "NORAD_CAT_ID": 19071, "ELEMENT_SET_NO": 999, "REV_AT_EPOCH": 82269, "BSTAR": 0.00018873566, "MEAN_MOTION_DOT": 1.03e-06, "MEAN_MOTION_DDOT": 0}, "tle": {"line1": "1 19071U 88033B   25347.01915549  .00000103  00000+0  18874-3 0  9999", "line2": "2 19071  90.3218  16.5333 0188385 166.0148 208.1507 13.27954043822691"}}, "geometry": {"type": "Point", "coordinates": [16.57550349072994, -5.836988897251013]}}, {"type": "Feature", "properties": {"norad_id": 19223, "name": "NOVA 2", "group": "nnss", "lat": -1.6438594159231046, "lon": -101.72790680680612, "alt_km": 1199.0714913741785, "timestamp": "2025-12-13T07:35:41.777998+00:00", "meta": {"OBJECT_NAME": "NOVA 2", "OBJECT_ID": "1988-052A", "EPOCH": "2025-12-13T00:17:40.824384", "MEAN_MOTION": 13.22935856, "ECCENTRICITY": 0.00305697, "INCLINATION": 89.9872, "RA_OF_ASC_NODE": 78.2721, "ARG_OF_PERICENTER": 16.1693, "MEAN_ANOMALY": 157.4485, "EPHEMERIS_TYPE": 0, "CLASSIFICATION_TYPE": "U", "NORAD_CAT_ID": 19223, "ELEMENT_SET_NO": 999, "REV_AT_EPOCH": 80951, "BSTAR": 0.0001904171, "MEAN_MOTION_DOT": 8.9e-07, "MEAN_MOTION_DDOT": 0}, "tle": {"line1": "1 19223U 88052A   25347.01227806  .00000089  00000+0  19042-3 0  9992", "line2": "2 19223  89.9872  78.2721 0030569  16.1693 157.4485 13.22935856809519"}}, "geometry": {"type": "Point", "coordinates": [-101.72790680680612, -1.6438594159231046]}}, {"type": "Feature", "properties": {"norad_id": 19419, "name": "OSCAR 25", "group": "nnss", "lat": -60.7174611498347, "lon": 20.30834109705658, "alt_km": 1065.9538678140643, "timestamp": "2025-12-13T07:35:41.778008+00:00", "meta": {"OBJECT_NAME": "OSCAR 25", "OBJECT_ID": "1988-074A", "EPOCH": "2025-12-13T01:01:55.223328", "MEAN_MOTION": 13.42623332, "ECCENTRICITY": 0.00944562, "INCLINATION": 90.0348, "RA_OF_ASC_NODE": 20.2453, "ARG_OF_PERICENTER": 244.9614, "MEAN_ANOMALY": 172.5461, "EPHEMERIS_TYPE": 0, "CLASSIFICATION_TYPE": "U", "NORAD_CAT_ID": 19419, "ELEMENT_SET_NO": 999, "REV_AT_EPOCH": 82644, "BSTAR": 0.00020215689, "MEAN_MOTION_DOT": 1.26e-06, "MEAN_MOTION_DDOT": 0}, "tle": {"line1": "1 19419U 88074A   25347.04300027  .00000126  00000+0  20216-3 0  9990", "line2": "2 19419  90.0348  20.2453 0094456 244.9614 172.5461 13.42623332826443"}}, "geometry": {"type": "Point", "coordinates": [20.30834109705658, -60.7174611498347]}}, {"type": "Feature", "properties": {"norad_id": 19420, "name": "OSCAR 31", "group": "nnss", "lat": -1.3765878164629244, "lon": -159.40460535763452, "alt_km": 1064.5825119730735, "timestamp": "2025-12-13T07:35:41.778018+00:00", "meta": {"OBJECT_NAME": "OSCAR 31", "OBJECT_ID": "1988-074B", "EPOCH": "2025-12-12T23:50:41.857728", "MEAN_MOTION": 13.42584618, "ECCENTRICITY": 0.00927656, "INCLINATION": 90.0364, "RA_OF_ASC_NODE": 20.5951, "ARG_OF_PERICENTER": 239.2154, "MEAN_ANOMALY": 183.1059, "EPHEMERIS_TYPE": 0, "CLASSIFICATION_TYPE": "U", "NORAD_CAT_ID": 19420, "ELEMENT_SET_NO": 999, "REV_AT_EPOCH": 82654, "BSTAR": 0.00017116515, "MEAN_MOTION_DOT": 1.08e-06, "MEAN_MOTION_DDOT": 0}, "tle": {"line1": "1 19420U 88074B   25346.99354002  .00000108  00000+0  17117-3 0  9993", "line2": "2 19420  90.0364  20.5951 0092765 239.2154 183.1059 13.42584618826541"}}, "geometry": {"type": "Point", "coordinates": [-159.40460535763452, -1.3765878164629244]}}]}